STARLINK-4022           
1 52629U 22052AH  25297.78361983  .00000072  00000+0  22596-4 0  9991
2 52629  53.2183 159.1899 0001654  85.9307 274.1874 15.08835574190478
STARLINK-3989           
1 52630U 22052AJ  25297.79834354  .00000811  00000+0  69063-4 0  9992
2 52630  53.2145 159.1640 0001455  84.9551 275.1607 15.08839767190474
STARLINK-3794           
1 52631U 22052AK  25297.78457885 -.00000720  00000+0 -27124-4 0  9995
2 52631  53.2156 159.2309 0001494  95.1275 264.9888 15.08840560190481
STARLINK-3995           
1 52632U 22052AL  25297.79466402  .00000040  00000+0  20597-4 0  9992
2 52632  53.2175 159.1798 0001503  95.7265 264.3899 15.08837967190483
STARLINK-3994           
1 52633U 22052AM  25297.77259650 -.00001858  00000+0 -98713-4 0  9991
2 52633  53.2147 159.2745 0000885 104.9911 255.1179 15.08823886190483
STARLINK-3974           
1 52634U 22052AN  25297.78731472  .00006946  00000+0  45459-3 0  9999
2 52634  53.2171 159.2381 0001839  88.9765 271.1438 15.08798752190473
STARLINK-3978           
1 52635U 22052AP  25297.55638311  .00002333  00000+0  16465-3 0  9994
2 52635  53.2158 150.2470 0001464  88.8703 271.2457 15.08836287190584
STARLINK-3967           
1 52636U 22052AQ  25297.77994493 -.00000371  00000+0 -52371-5 0  9995
2 52636  53.2175 159.2431 0001548  91.6760 268.4410 15.08832105190478
STARLINK-3961           
1 52637U 22052AR  25297.75141704 -.00000103  00000+0  11610-4 0  9995
2 52637  53.2152 149.3694 0001219  85.7557 274.3575 15.08839908191419
STARLINK-3941           
1 52638U 22052AS  25297.77626353 -.00000583  00000+0 -18535-4 0  9992
2 52638  53.2186 159.2560 0001497  97.8857 262.2305 15.08835881191282
STARLINK-3968           
1 52639U 22052AT  25297.80661984  .00001767  00000+0  12910-3 0  9999
2 52639  53.2164 149.1219 0001251  92.2367 267.8769 15.08840414191420
STARLINK-3977           
1 52640U 22052AU  25297.29511167  .00001764  00000+0  12895-3 0  9990
2 52640  53.2166 151.4464 0001368  74.8325 285.2818 15.08830958190533
STARLINK-3991           
1 52641U 22052AV  25297.55736247 -.00000407  00000+0 -74687-5 0  9992
2 52641  53.2166 150.4407 0001476  88.3286 271.7875 15.08836030190581
STARLINK-3971           
1 52642U 22052AW  25297.74774096 -.00000130  00000+0  99217-5 0  9996
2 52642  53.2167 149.3877 0001446  81.3337 278.7819 15.08837608190608
STARLINK-3963           
1 52643U 22052AX  25297.78917559  .00001043  00000+0  83620-4 0  9997
2 52643  53.2148 149.1746 0001555  86.2195 273.8975 15.08841615190611
STARLINK-3985           
1 52644U 22052AY  25297.74407150  .00001934  00000+0  13963-3 0  9996
2 52644  53.2154 149.4033 0001328  92.5507 267.5637 15.08821868190608
STARLINK-3973           
1 52645U 22052AZ  25297.79928663  .00003063  00000+0  21048-3 0  9997
2 52645  53.2153 149.2603 0001685  89.4517 270.6668 15.08835649190613
