[{"OBJECT_NAME":"STARLINK-4022","OBJECT_ID":"2022-052AH","EPOCH":"2025-10-24T18:48:24.753312","MEAN_MOTION":15.08835574,"ECCENTRICITY":0.0001654,"INCLINATION":53.2183,"RA_OF_ASC_NODE":159.1899,"ARG_OF_PERICENTER":85.9307,"MEAN_ANOMALY":274.1874,"EPHEMERIS_TYPE":0,"CLASSIFICATION_TYPE":"U","NORAD_CAT_ID":52629,"ELEMENT_SET_NO":999,"REV_AT_EPOCH":19047,"BSTAR":2.2596e-5,"MEAN_MOTION_DOT":7.2e-7,"MEAN_MOTION_DDOT":0},{"OBJECT_NAME":"STARLINK-3989","OBJECT_ID":"2022-052AJ","EPOCH":"2025-10-24T19:09:36.881856","MEAN_MOTION":15.08839767,"ECCENTRICITY":0.0001455,"INCLINATION":53.2145,"RA_OF_ASC_NODE":159.164,"ARG_OF_PERICENTER":84.9551,"MEAN_ANOMALY":275.1607,"EPHEMERIS_TYPE":0,"CLASSIFICATION_TYPE":"U","NORAD_CAT_ID":52630,"ELEMENT_SET_NO":999,"REV_AT_EPOCH":19047,"BSTAR":6.9063e-5,"MEAN_MOTION_DOT":8.11e-6,"MEAN_MOTION_DDOT":0},{"OBJECT_NAME":"STARLINK-3794","OBJECT_ID":"2022-052AK","EPOCH":"2025-10-24T18:49:47.612640","MEAN_MOTION":15.0884056,"ECCENTRICITY":0.0001494,"INCLINATION":53.2156,"RA_OF_ASC_NODE":159.2309,"ARG_OF_PERICENTER":95.1275,"MEAN_ANOMALY":264.9888,"EPHEMERIS_TYPE":0,"CLASSIFICATION_TYPE":"U","NORAD_CAT_ID":52631,"ELEMENT_SET_NO":999,"REV_AT_EPOCH":19048,"BSTAR":-2.7124e-5,"MEAN_MOTION_DOT":-7.2e-6,"MEAN_MOTION_DDOT":0},{"OBJECT_NAME":"STARLINK-3995","OBJECT_ID":"2022-052AL","EPOCH":"2025-10-24T19:04:18.971328","MEAN_MOTION":15.08837967,"ECCENTRICITY":0.0001503,"INCLINATION":53.2175,"RA_OF_ASC_NODE":159.1798,"ARG_OF_PERICENTER":95.7265,"MEAN_ANOMALY":264.3899,"EPHEMERIS_TYPE":0,"CLASSIFICATION_TYPE":"U","NORAD_CAT_ID":52632,"ELEMENT_SET_NO":999,"REV_AT_EPOCH":19048,"BSTAR":2.0597e-5,"MEAN_MOTION_DOT":4.0e-7,"MEAN_MOTION_DDOT":0},{"OBJECT_NAME":"STARLINK-3994","OBJECT_ID":"2022-052AM","EPOCH":"2025-10-24T18:32:32.337600","MEAN_MOTION":15.08823886,"ECCENTRICITY":8.85e-5,"INCLINATION":53.2147,"RA_OF_ASC_NODE":159.2745,"ARG_OF_PERICENTER":104.9911,"MEAN_ANOMALY":255.1179,"EPHEMERIS_TYPE":0,"CLASSIFICATION_TYPE":"U","NORAD_CAT_ID":52633,"ELEMENT_SET_NO":999,"REV_AT_EPOCH":19048,"BSTAR":-9.8713e-5,"MEAN_MOTION_DOT":-1.858e-5,"MEAN_MOTION_DDOT":0},{"OBJECT_NAME":"STARLINK-3974","OBJECT_ID":"2022-052AN","EPOCH":"2025-10-24T18:53:43.991808","MEAN_MOTION":15.08798752,"ECCENTRICITY":0.0001839,"INCLINATION":53.2171,"RA_OF_ASC_NODE":159.2381,"ARG_OF_PERICENTER":88.9765,"MEAN_ANOMALY":271.1438,"EPHEMERIS_TYPE":0,"CLASSIFICATION_TYPE":"U","NORAD_CAT_ID":52634,"ELEMENT_SET_NO":999,"REV_AT_EPOCH":19047,"BSTAR":0.00045459,"MEAN_MOTION_DOT":6.946e-5,"MEAN_MOTION_DDOT":0},{"OBJECT_NAME":"STARLINK-3978","OBJECT_ID":"2022-052AP","EPOCH":"2025-10-24T13:21:11.500704","MEAN_MOTION":15.08836287,"ECCENTRICITY":0.0001464,"INCLINATION":53.2158,"RA_OF_ASC_NODE":150.247,"ARG_OF_PERICENTER":88.8703,"MEAN_ANOMALY":271.2457,"EPHEMERIS_TYPE":0,"CLASSIFICATION_TYPE":"U","NORAD_CAT_ID":52635,"ELEMENT_SET_NO":999,"REV_AT_EPOCH":19058,"BSTAR":0.00016465,"MEAN_MOTION_DOT":2.333e-5,"MEAN_MOTION_DDOT":0},{"OBJECT_NAME":"STARLINK-3967","OBJECT_ID":"2022-052AQ","EPOCH":"2025-10-24T18:43:07.241952","MEAN_MOTION":15.08832105,"ECCENTRICITY":0.0001548,"INCLINATION":53.2175,"RA_OF_ASC_NODE":159.2431,"ARG_OF_PERICENTER":91.676,"MEAN_ANOMALY":268.441,"EPHEMERIS_TYPE":0,"CLASSIFICATION_TYPE":"U","NORAD_CAT_ID":52636,"ELEMENT_SET_NO":999,"REV_AT_EPOCH":19047,"BSTAR":-5.2371e-6,"MEAN_MOTION_DOT":-3.71e-6,"MEAN_MOTION_DDOT":0},{"OBJECT_NAME":"STARLINK-3961","OBJECT_ID":"2022-052AR","EPOCH":"2025-10-24T18:02:02.432256","MEAN_MOTION":15.08839908,"ECCENTRICITY":0.0001219,"INCLINATION":53.2152,"RA_OF_ASC_NODE":149.3694,"ARG_OF_PERICENTER":85.7557,"MEAN_ANOMALY":274.3575,"EPHEMERIS_TYPE":0,"CLASSIFICATION_TYPE":"U","NORAD_CAT_ID":52637,"ELEMENT_SET_NO":999,"REV_AT_EPOCH":19141,"BSTAR":1.161e-5,"MEAN_MOTION_DOT":-1.03e-6,"MEAN_MOTION_DDOT":0},{"OBJECT_NAME":"STARLINK-3941","OBJECT_ID":"2022-052AS","EPOCH":"2025-10-24T18:37:49.168992","MEAN_MOTION":15.08835881,"ECCENTRICITY":0.0001497,"INCLINATION":53.2186,"RA_OF_ASC_NODE":159.256,"ARG_OF_PERICENTER":97.8857,"MEAN_ANOMALY":262.2305,"EPHEMERIS_TYPE":0,"CLASSIFICATION_TYPE":"U","NORAD_CAT_ID":52638,"ELEMENT_SET_NO":999,"REV_AT_EPOCH":19128,"BSTAR":-1.8535e-5,"MEAN_MOTION_DOT":-5.83e-6,"MEAN_MOTION_DDOT":0},{"OBJECT_NAME":"STARLINK-3968","OBJECT_ID":"2022-052AT","EPOCH":"2025-10-24T19:21:31.954176","MEAN_MOTION":15.08840414,"ECCENTRICITY":0.0001251,"INCLINATION":53.2164,"RA_OF_ASC_NODE":149.1219,"ARG_OF_PERICENTER":92.2367,"MEAN_ANOMALY":267.8769,"EPHEMERIS_TYPE":0,"CLASSIFICATION_TYPE":"U","NORAD_CAT_ID":52639,"ELEMENT_SET_NO":999,"REV_AT_EPOCH":19142,"BSTAR":0.0001291,"MEAN_MOTION_DOT":1.767e-5,"MEAN_MOTION_DDOT":0},{"OBJECT_NAME":"STARLINK-3977","OBJECT_ID":"2022-052AU","EPOCH":"2025-10-24T07:04:57.648288","MEAN_MOTION":15.08830958,"ECCENTRICITY":0.0001368,"INCLINATION":53.2166,"RA_OF_ASC_NODE":151.4464,"ARG_OF_PERICENTER":74.8325,"MEAN_ANOMALY":285.2818,"EPHEMERIS_TYPE":0,"CLASSIFICATION_TYPE":"U","NORAD_CAT_ID":52640,"ELEMENT_SET_NO":999,"REV_AT_EPOCH":19053,"BSTAR":0.00012895,"MEAN_MOTION_DOT":1.764e-5,"MEAN_MOTION_DDOT":0},{"OBJECT_NAME":"STARLINK-3991","OBJECT_ID":"2022-052AV","EPOCH":"2025-10-24T13:22:36.117408","MEAN_MOTION":15.0883603,"ECCENTRICITY":0.0001476,"INCLINATION":53.2166,"RA_OF_ASC_NODE":150.4407,"ARG_OF_PERICENTER":88.3286,"MEAN_ANOMALY":271.7875,"EPHEMERIS_TYPE":0,"CLASSIFICATION_TYPE":"U","NORAD_CAT_ID":52641,"ELEMENT_SET_NO":999,"REV_AT_EPOCH":19058,"BSTAR":-7.4687e-6,"MEAN_MOTION_DOT":-4.07e-6,"MEAN_MOTION_DDOT":0},{"OBJECT_NAME":"STARLINK-3971","OBJECT_ID":"2022-052AW","EPOCH":"2025-10-24T17:56:44.818944","MEAN_MOTION":15.08837608,"ECCENTRICITY":0.0001446,"INCLINATION":53.2167,"RA_OF_ASC_NODE":149.3877,"ARG_OF_PERICENTER":81.3337,"MEAN_ANOMALY":278.7819,"EPHEMERIS_TYPE":0,"CLASSIFICATION_TYPE":"U","NORAD_CAT_ID":52642,"ELEMENT_SET_NO":999,"REV_AT_EPOCH":19060,"BSTAR":9.9217e-6,"MEAN_MOTION_DOT":-1.3e-6,"MEAN_MOTION_DDOT":0},{"OBJECT_NAME":"STARLINK-3963","OBJECT_ID":"2022-052AX","EPOCH":"2025-10-24T18:56:24.770976","MEAN_MOTION":15.08841615,"ECCENTRICITY":0.0001555,"INCLINATION":53.2148,"RA_OF_ASC_NODE":149.1746,"ARG_OF_PERICENTER":86.2195,"MEAN_ANOMALY":273.8975,"EPHEMERIS_TYPE":0,"CLASSIFICATION_TYPE":"U","NORAD_CAT_ID":52643,"ELEMENT_SET_NO":999,"REV_AT_EPOCH":19061,"BSTAR":8.362e-5,"MEAN_MOTION_DOT":1.043e-5,"MEAN_MOTION_DDOT":0},{"OBJECT_NAME":"STARLINK-3985","OBJECT_ID":"2022-052AY","EPOCH":"2025-10-24T17:51:27.777600","MEAN_MOTION":15.08821868,"ECCENTRICITY":0.0001328,"INCLINATION":53.2154,"RA_OF_ASC_NODE":149.4033,"ARG_OF_PERICENTER":92.5507,"MEAN_ANOMALY":267.5637,"EPHEMERIS_TYPE":0,"CLASSIFICATION_TYPE":"U","NORAD_CAT_ID":52644,"ELEMENT_SET_NO":999,"REV_AT_EPOCH":19060,"BSTAR":0.00013963,"MEAN_MOTION_DOT":1.934e-5,"MEAN_MOTION_DDOT":0},{"OBJECT_NAME":"STARLINK-3973","OBJECT_ID":"2022-052AZ","EPOCH":"2025-10-24T19:10:58.364832","MEAN_MOTION":15.08835649,"ECCENTRICITY":0.0001685,"INCLINATION":53.2153,"RA_OF_ASC_NODE":149.2603,"ARG_OF_PERICENTER":89.4517,"MEAN_ANOMALY":270.6668,"EPHEMERIS_TYPE":0,"CLASSIFICATION_TYPE":"U","NORAD_CAT_ID":52645,"ELEMENT_SET_NO":999,"REV_AT_EPOCH":19061,"BSTAR":0.00021048,"MEAN_MOTION_DOT":3.063e-5,"MEAN_MOTION_DDOT":0}]
